PROBA-1                 
1 26958U 01049B   26195.61543950  .00001434  00000+0  95512-4 0  9997
2 26958  97.9600 205.1071 0055843  31.7032 328.7538 15.07615088347753
CUTE-1 (CO-55)          
1 27844U 03031E   26195.57423981  .00000140  00000+0  79585-4 0  9996
2 27844  98.6742 203.7891 0010828 104.2879 255.9503 14.24351311195574
CUBESAT XI-IV (CO-57)   
1 27848U 03031J   26195.57646245  .00000117  00000+0  70501-4 0  9993
2 27848  98.6774 203.4819 0010526 121.1058 239.1154 14.23634354195275
APRIZESAT 4             
1 35684U 09041D   26195.43175073  .00000321  00000+0  45081-4 0  9990
2 35684  98.1404 271.2944 0042198 232.0406 127.6992 14.83913198915406
APRIZESAT 3             
1 35686U 09041F   26195.45006053  .00000971  00000+0  88768-4 0  9995
2 35686  98.2098 349.9859 0060857 338.4003  21.4651 14.96309686920451
PROBA-2                 
1 36037U 09059B   26195.47551579  .00000076  00000+0  28226-4 0  9994
2 36037  98.2458  18.4511 0012984 190.9949 169.0966 14.54873530885493
APRIZESAT 5             
1 37792U 11044E   26195.36812580  .00000404  00000+0  58463-4 0  9991
2 37792  98.2450 129.1802 0050688 275.4337  84.1093 14.81126830802817
APRIZESAT 6             
1 37793U 11044F   26195.59581402  .00000374  00000+0  60341-4 0  9997
2 37793  98.2339 106.6528 0043113   0.1670 118.8797 14.76956250801194
PROBA-V                 
1 39159U 13021A   26195.45985532  .00000016  00000+0  24951-4 0  9999
2 39159  98.3606 172.7227 0005276  61.6090 298.5621 14.23603330684995
APRIZESAT 7             
1 39416U 13066A   26195.39011957  .00000433  00000+0  48299-4 0  9992
2 39416  97.7722 148.2218 0037183 119.8737 240.6185 14.91618167685282
APRIZESAT 8             
1 39425U 13066K   26195.38192838  .00000381  00000+0  47245-4 0  9991
2 39425  97.8230 142.4729 0045417 194.5654 165.4257 14.87695838683712
BUGSAT-1 (TITA)         
1 40014U 14033E   26195.56489249  .00001912  00000+0  10286-3 0  9992
2 40014  98.0441 289.7206 0029183  88.0848 272.3725 15.15876010659989
SAUDISAT 4              
1 40016U 14033G   26195.37319920  .00000233  00000+0  37605-4 0  9991
2 40016  97.7616 340.5730 0044332 346.7652  13.2394 14.79575141650096
APRIZESAT 9             
1 40018U 14033J   26195.35696210  .00000324  00000+0  54934-4 0  9996
2 40018  97.9092 327.8963 0067422 112.5755 248.2606 14.74251998647562
APRIZESAT 10            
1 40019U 14033K   26195.33751259  .00000302  00000+0  55245-4 0  9992
2 40019  97.9680 321.6960 0078675 186.0890 173.9368 14.70910290646249
TECHDEMOSAT-1 (TDS-1)   
1 40076U 14037H   26195.52942491  .00004488  00000+0  25370-3 0  9994
2 40076  98.3824 190.4620 0006861 160.8552 199.2936 15.13673458652367
TECHNOSAT               
1 42829U 17042E   26195.37528415  .00001874  00000+0  13547-3 0  9999
2 42829  97.4314 352.0048 0017510   6.1550 353.9889 15.05108329490796
FLYING LAPTOP           
1 42831U 17042G   26195.58021759  .00002177  00000+0  17302-3 0  9994
2 42831  97.4797 350.0817 0019729  34.5222 325.7279 15.01310930490565
HAWK-A                  
1 43765U 18099H   26195.38539066  .00003965  00000+0  15941-3 0  9990
2 43765  97.3900 247.2697 0034626 186.7919 173.2855 15.24958461417248
HAWK-B                  
1 43794U 18099AN  26195.11109129  .00003561  00000+0  15202-3 0  9998
2 43794  97.3950 246.3570 0031246 205.9479 154.0193 15.23107688417131
HAWK-C                  
1 43799U 18099AT  26195.62720173  .00004965  00000+0  17764-3 0  9991
2 43799  97.3876 248.5569 0040227 185.7904 174.2876 15.28484963418101
SALSAT                  
1 46495U 20068K   26195.54877328  .00004163  00000+0  14541-3 0  9992
2 46495  97.8856 200.2874 0009148 195.2534 164.8431 15.30166467319545
HAWK-2C                 
1 47502U 21006CT  26195.59990305  .00003784  00000+0  11369-3 0  9994
2 47502  97.2266 239.3662 0008653 102.4933 257.7279 15.34984490303706
HAWK-2A                 
1 47505U 21006CW  26195.60213318  .00003845  00000+0  11546-3 0  9996
2 47505  97.2307 240.0621 0008192 105.8875 254.3272 15.34999512303706
HAWK-2B                 
1 47508U 21006CZ  26195.59570587  .00004406  00000+0  13139-3 0  9995
2 47508  97.2177 238.3445 0008726 104.2381 255.9833 15.35130884303706
HAWK-3B                 
1 48931U 21059BE  26195.52726760  .00031305  00000+0  24226-3 0  9990
2 48931  97.6627  34.8674 0004350 200.7317 159.3770 15.71822389282143
HAWK-3C                 
1 48948U 21059BX  26195.52695099  .00028898  00000+0  22376-3 0  9995
2 48948  97.6746  40.5999 0004601 201.7329 158.3739 15.71823650282146
HAWK-3A                 
1 48957U 21059CG  26195.52683910  .00029930  00000+0  23169-3 0  9993
2 48957  97.6690  37.7828 0004534 203.2182 156.8876 15.71823724282149
HAWK-5C                 
1 52754U 22057Y   26195.57733253  .00010730  00000+0  17807-3 0  9993
2 52754  97.6609 357.0339 0002836 349.4141  10.7050 15.52311088230593
HAWK-5B                 
1 52756U 22057AA  26195.57714739  .00010584  00000+0  17569-3 0  9995
2 52756  97.6624 355.3871 0003521 334.8083  25.2996 15.52308298230598
